2023-007C               
1 55250U 23007C   23035.80631076  .00019114  00000+0  75432-3 0  9992
2 55250  97.3750 109.9604 0008397 177.1864 322.4306 15.25552521  3141
2023-007D               
1 55251U 23007D   23035.93211053  .00018958  00000+0  74693-3 0  9999
2 55251  97.3798 110.1009 0008907 180.0322 294.4003 15.25606212  3167
2023-007E               
1 55252U 23007E   23035.96024696 -.00069400  00000+0 -31266-2 0  9996
2 55252  97.3714 110.0696 0010012 204.4575 330.2139 15.21301817  3166
2023-007F               
1 55253U 23007F   23036.00404112 -.00130212  00000+0 -57628-2 0  9998
2 55253  97.3716 110.1494 0002807 185.9044 299.4281 15.22251634  3170
2023-007G               
1 55254U 23007G   23035.80385711  .00013784  00000+0  54424-3 0  9993
2 55254  97.3786 109.9745 0008437 187.0841 312.7386 15.25608051  3140
2023-007H               
1 55255U 23007H   23035.92300008  .00024902  00000+0  95598-3 0  9994
2 55255  97.3722 110.0910 0008685 198.2944 276.8567 15.26416696  3167
2023-007J               
1 55256U 23007J   23035.39130012  .00017665  00000+0  68595-3 0  9997
2 55256  97.3758 109.5716 0008548 200.0062 225.9105 15.26108359  3083
2023-007K               
1 55257U 23007K   23035.92675725  .00009102  00000+0  35879-3 0  9998
2 55257  97.3751 110.0927 0008164 199.4750 275.3466 15.25773147  3167
2023-007L               
1 55258U 23007L   23035.92467856  .00011671  00000+0  45620-3 0  9992
2 55258  97.3760 110.0994 0007825 202.0104 272.9680 15.25988589  3168
2023-007M               
1 55259U 23007M   23035.92099414  .00010385  00000+0  40330-3 0  9998
2 55259  97.3711 110.0918 0008081 211.5427 263.7662 15.26234188  3167
2023-007N               
1 55260U 23007N   23035.91139872  .00014631  00000+0  55246-3 0  9992
2 55260  97.3721 110.1064 0008061 230.5211 247.3691 15.27082525  3160
2023-007P               
1 55261U 23007P   23035.91042394  .00010682  00000+0  40428-3 0  9993
2 55261  97.3714 110.1062 0008855 233.8808 244.1024 15.27079552  3161
USA 342                 
1 55263U 23008A   23034.57016139 -.00000013  00000+0  00000+0 0  9991
2 55263   0.0232  36.9180 0008618  59.6208 106.4913  1.01098867   183
NAVSTAR 82 (USA 343)    
1 55268U 23009A   23034.45845486  .00000036  00000+0  00000+0 0  9993
2 55268  55.1006 196.7635 0008173  97.9103 262.1535  2.00570545   596
STARLINK-5277           
1 55269U 23010A   23035.91667824 -.00833200  00000+0 -63645-2 0  9992
2 55269  70.0001  22.8940 0003468 264.9087 315.9988 15.74231143  1307
STARLINK-5301           
1 55270U 23010B   23036.00002315 -.00834643  00000+0 -64254-2 0  9992
2 55270  70.0003  22.6594 0003631 263.8885  67.6420 15.74053406  3094
STARLINK-5306           
1 55271U 23010C   23035.91667824 -.00833191  00000+0 -63670-2 0  9992
2 55271  70.0001  22.8944 0003480 263.5473 316.8462 15.74221674  1307
STARLINK-5310           
1 55272U 23010D   23035.91667824 -.00833295  00000+0 -63721-2 0  9995
2 55272  70.0001  22.8958 0003462 265.4843 313.2530 15.74206593  1305
STARLINK-5291           
1 55273U 23010E   23035.91667824 -.00833190  00000+0 -63600-2 0  9996
2 55273  70.0001  22.8926 0003475 264.0405 317.9205 15.74247037  1302
STARLINK-5236           
1 55274U 23010F   23035.91667824 -.00836376  00000+0 -63838-2 0  9999
2 55274  69.9996  22.8907 0003414 265.6863 316.7912 15.74258409  1307
STARLINK-5260           
1 55275U 23010G   23036.00002315 -.00834695  00000+0 -64081-2 0  9992
2 55275  70.0002  22.6555 0003634 264.0450  71.1226 15.74117178  3090
STARLINK-5261           
1 55276U 23010H   23035.91667824 -.00826570  00000+0 -62932-2 0  9990
2 55276  69.9998  22.8884 0003461 262.9045 321.6346 15.74288525  1307
STARLINK-5299           
1 55277U 23010J   23035.91667824 -.00833272  00000+0 -63529-2 0  9991
2 55277  70.0000  22.8907 0003490 262.8220 320.6818 15.74275100  1305
STARLINK-5289           
1 55278U 23010K   23035.91667824 -.00832957  00000+0 -63376-2 0  9991
2 55278  70.0001  22.8871 0003467 268.1953 317.8801 15.74321335  1305
STARLINK-5323           
1 55279U 23010L   23035.91667824 -.00834057  00000+0 -63568-2 0  9998
2 55279  70.0001  22.8899 0003499 264.2502 319.7714 15.74284700  1306
STARLINK-5331           
1 55280U 23010M   23036.00002315 -.00836560  00000+0 -64059-2 0  9996
2 55280  70.0001  22.6506 0003604 265.4061  73.3928 15.74182040  3094
STARLINK-5298           
1 55281U 23010N   23035.91667824 -.00833262  00000+0 -63455-2 0  9993
2 55281  70.0000  22.8887 0003490 262.8863 322.1719 15.74301644  1300
STARLINK-5330           
1 55282U 23010P   23036.00002315 -.00835986  00000+0 -63935-2 0  9991
2 55282  70.0002  22.6485 0003624 264.4503  75.9004 15.74209078  3099
STARLINK-5317           
1 55283U 23010Q   23036.00002315 -.00836296  00000+0 -64087-2 0  9996
2 55283  70.0001  22.6520 0003633 263.1236  74.6395 15.74163625  3094
STARLINK-5337           
1 55284U 23010R   23036.00002315 -.00836123  00000+0 -63902-2 0  9991
2 55284  70.0001  22.6473 0003600 267.8621  73.5399 15.74225423  3092
STARLINK-5332           
1 55285U 23010S   23036.00002315 -.00831397  00000+0 -58650-2 0  9994
2 55285  70.0003  22.5300 0003536 267.8240 172.7141 15.76043528  3091
STARLINK-5338           
1 55286U 23010T   23036.00002315 -.00835921  00000+0 -63904-2 0  9990
2 55286  70.0002  22.6479 0003601 268.0872  72.7772 15.74218567  3090
STARLINK-5341           
1 55287U 23010U   23035.91667824 -.00833120  00000+0 -63319-2 0  9991
2 55287  70.0001  22.8853 0003476 264.6061 323.0300 15.74346899  1301
STARLINK-5311           
1 55288U 23010V   23035.91667824 -.00834708  00000+0 -63197-2 0  9999
2 55288  70.0002  22.8788 0003492 263.6591 329.1150 15.74439253  1302
STARLINK-5320           
1 55289U 23010W   23035.91667824 -.00833092  00000+0 -63190-2 0  9998
2 55289  70.0001  22.8822 0003489 263.3564 326.8479 15.74392817  1306
STARLINK-5266           
1 55290U 23010X   23035.91667824 -.00835056  00000+0 -63299-2 0  9992
2 55290  69.9999  22.8805 0003490 265.9351 325.2939 15.74412713  1308
STARLINK-5327           
1 55291U 23010Y   23036.00002315 -.00835935  00000+0 -63803-2 0  9999
2 55291  70.0002  22.6454 0003625 264.5867  78.3438 15.74255137  3095
STARLINK-5325           
1 55292U 23010Z   23036.00002315 -.00835863  00000+0 -63674-2 0  9996
2 55292  70.0002  22.6421 0003613 266.0249  79.4940 15.74299710  3093
STARLINK-5287           
1 55293U 23010AA  23035.91667824 -.00833069  00000+0 -63087-2 0  9992
2 55293  70.0001  22.8797 0003504 262.2314 330.0252 15.74429465  1307
STARLINK-5286           
1 55294U 23010AB  23035.91667824 -.00833110  00000+0 -63332-2 0  9993
2 55294  70.0001  22.8853 0003498 262.3242 324.7633 15.74341591  1300
STARLINK-5293           
1 55295U 23010AC  23036.00002315 -.00834634  00000+0 -64210-2 0  9991
2 55295  70.0003  22.6585 0003622 264.8556  67.1407 15.74069068  3098
STARLINK-5285           
1 55296U 23010AD  23035.91667824 -.00833061  00000+0 -62939-2 0  9992
2 55296  70.0001  22.8754 0003503 262.6447 332.6964 15.74483246  1308
STARLINK-5284           
1 55297U 23010AE  23036.00002315 -.00834767  00000+0 -63557-2 0  9993
2 55297  70.0001  22.6420 0003630 265.9517  80.0769 15.74308633  3093
STARLINK-5272           
1 55298U 23010AF  23035.91667824 -.00833057  00000+0 -62912-2 0  9990
2 55298  70.0001  22.8748 0003497 263.2050 332.6417 15.74493069  1309
STARLINK-5270           
1 55299U 23010AG  23035.91667824 -.00833077  00000+0 -62991-2 0  9990
2 55299  70.0001  22.8770 0003469 266.6719 327.6434 15.74465153  1309
STARLINK-5308           
1 55300U 23010AH  23035.91667824 -.00833047  00000+0 -62886-2 0  9993
2 55300  70.0001  22.8741 0003502 262.8490 333.5096 15.74502196  1301
STARLINK-5321           
1 55302U 23010AK  23035.91667824 -.00833041  00000+0 -62865-2 0  9996
2 55302  70.0001  22.8735 0003471 266.8565 330.0251 15.74510082  1306
STARLINK-5322           
1 55303U 23010AL  23035.91667824 -.00833106  00000+0 -63206-2 0  9999
2 55303  70.0001  22.8824 0003497 262.6470 327.0112 15.74387316  1307
STARLINK-5318           
1 55304U 23010AM  23035.91667824 -.00833023  00000+0 -62837-2 0  9997
2 55304  70.0001  22.8728 0003509 262.2941 335.0982 15.74519295  1301
STARLINK-5316           
1 55305U 23010AN  23035.91667824 -.00833189  00000+0 -63598-2 0  9996
2 55305  70.0001  22.8922 0003472 264.4482 316.9108 15.74247782  1308
STARLINK-5295           
1 55306U 23010AP  23036.00002315 -.00835695  00000+0 -63412-2 0  9995
2 55306  70.0001  22.6357 0003614 266.0908  84.5866 15.74389525  3097
STARLINK-5288           
1 55307U 23010AQ  23035.91667824 -.00833030  00000+0 -62814-2 0  9993
2 55307  70.0002  22.8726 0003489 264.2848 333.6212 15.74528175  1305
STARLINK-5292           
1 55308U 23010AR  23035.91667824 -.00837012  00000+0 -63011-2 0  9998
2 55308  69.9998  22.8690 0003495 265.2605 335.1985 15.74576619  1306
STARLINK-5315           
1 55309U 23010AS  23035.91667824 -.00833020  00000+0 -62761-2 0  9995
2 55309  70.0002  22.8713 0003508 262.4979 336.4246 15.74547028  1306
STARLINK-5309           
1 55310U 23010AT  23035.91667824 -.00832986  00000+0 -62704-2 0  9994
2 55310  70.0001  22.8697 0003530 260.8920 339.0394 15.74566624  1307
STARLINK-5312           
1 55311U 23010AU  23035.91667824 -.00833012  00000+0 -62736-2 0  9991
2 55311  70.0002  22.8707 0003517 261.7915 337.6448 15.74555833  1304
STARLINK-5296           
1 55312U 23010AV  23036.00002315 -.00838886  21869-3 -25023-2 0  9993
2 55312  70.0001  21.7869 0003719 265.3339  77.9064 15.92168275  3114
STARLINK-5313           
1 55313U 23010AW  23036.00002315 -.00835545  00000+0 -63269-2 0  9997
2 55313  70.0001  22.6326 0003615 266.0868  87.1411 15.74436906  3098
STARLINK-5305           
1 55314U 23010AX  23036.00002315 -.00835522  00000+0 -63198-2 0  9994
2 55314  70.0001  22.6305 0003615 265.9553  88.8312 15.74462038  3098
